{"TopicId":37836,"ForumId":44,"TopicTitle":"*Sedna* Possible planitoid to be added to KSP???","CreatedByName":"xxvenumusxx","CreatedById":28982,"CreatedDateTime":"2013-07-20T07:54:13Z","PageNum":1,"Articles":[{"CreatedByName":"xxvenumusxx","CreatedById":28982,"CreatedDateTime":"2013-07-20T07:54:13Z","Content":"\n\u003Cp\u003EMany of you might know and many of you might not know about this planetary body at the brim of our Solar System but I would love to see it added to a future version of KSP \u003C/p\u003E\u003Cp\u003EBrief explanation of Sedna: it was discovered on November 14th, 2003 \u0022as you see below.\u0022 and has a VERY elliptical orbit \u0022Link below shows its relative orbit path\u0022 and being largely a mixture of water, methane and nitrogen ices with tholins. it is classified as a Dwarf Planet, slightly smaller then our moon, and has an orbit period of around 11,500 years. \u003C/p\u003E\u003Cp\u003E\u003Ca href=\u0022https://upload.wikimedia.org/wikipedia/commons/thumb/e/e3/Sedna_orbit.svg/600px-Sedna_orbit.svg.png\u0022 rel=\u0022external nofollow\u0022\u003Ehttp://upload.wikimedia.org/wikipedia/commons/thumb/e/e3/Sedna_orbit.svg/600px-Sedna_orbit.svg.png\u003C/a\u003E\u003C/p\u003E\u003Cp\u003EDiscovered by \u003C/p\u003E\u003Cp\u003E Michael E. Brown,\u003C/p\u003E\u003Cp\u003E C. Trujillo,\u003C/p\u003E\u003Cp\u003E D. Rabinowitz\u003C/p\u003E\u003Cp\u003EDiscovery date November 14, 2003\u003C/p\u003E\u003Cp\u003E -Designations-\u003C/p\u003E\u003Cp\u003EMPC designation 90377 Sedna\u003C/p\u003E\u003Cp\u003EPronunciation /\u00C3\u2039\u00CB\u2020s\u00C3\u2030\u00E2\u20AC\u00BAdn\u00C3\u2030\u00E2\u201E\u00A2/ SED-n\u00C3\u2030\u00E2\u201E\u00A2\u003C/p\u003E\u003Cp\u003EAlternative names 2003 VB12\u003C/p\u003E\u003Cp\u003EMinor planet category trans-Neptunian object detached object Oort cloud object\u003C/p\u003E\u003Cp\u003E -Orbital characteristics-\u003C/p\u003E\u003Cp\u003EEpoch 2010-Jul-23 (JD 2455400.5)\u003C/p\u003E\u003Cp\u003EAphelion 937 AU (Q)[3]\u003C/p\u003E\u003Cp\u003E 1.402\u00C3\u0192\u00E2\u20AC\u201D1014 m\u003C/p\u003E\u003Cp\u003E 140.2 Tm\u003C/p\u003E\u003Cp\u003E 0.0148 ly\u003C/p\u003E\u003Cp\u003EPerihelion \u003C/p\u003E\u003Cp\u003E 76.361 AU (q)\u003C/p\u003E\u003Cp\u003E 1.142 3\u00C3\u0192\u00E2\u20AC\u201D1013 m\u003C/p\u003E\u003Cp\u003E 11.423 Tm\u003C/p\u003E\u003Cp\u003ESemi-major axis \u003C/p\u003E\u003Cp\u003E 518.57 AU (a)\u003C/p\u003E\u003Cp\u003E 7.757 6\u00C3\u0192\u00E2\u20AC\u201D1013 m\u003C/p\u003E\u003Cp\u003E 77.576 Tm\u003C/p\u003E\u003Cp\u003EEccentricity 0.8527\u003C/p\u003E\u003Cp\u003EOrbital period \u00C3\u00A2\u00E2\u20AC\u00B0\u00CB\u202011,400 yr[3][a]\u003C/p\u003E\u003Cp\u003EAverage orbital speed 1.04 km/s\u003C/p\u003E\u003Cp\u003EMean anomaly 358.01\u00C3\u201A\u00C2\u00B0\u003C/p\u003E\u003Cp\u003EInclination 11.927\u00C3\u201A\u00C2\u00B0\u003C/p\u003E\u003Cp\u003ELongitude of ascending node 144.26\u00C3\u201A\u00C2\u00B0\u003C/p\u003E\u003Cp\u003EArgument of perihelion 311.02\u00C3\u201A\u00C2\u00B0\u003C/p\u003E\u003Cp\u003E -Physical characteristics-\u003C/p\u003E\u003Cp\u003EDimensions 995 \u00C3\u201A\u00C2\u00B1 80 km^6\u003C/p\u003E\u003Cp\u003EMass \u00C3\u00A2\u00E2\u20AC\u00B0\u00CB\u20201 \u00C3\u0192\u00E2\u20AC\u201D 1021 kg^b\u003C/p\u003E\u003Cp\u003EEquatorial surface gravity \u00C3\u00A2\u00E2\u20AC\u00B0\u00CB\u20200.27 m/s2\u003C/p\u003E\u003Cp\u003EEscape velocity \u00C3\u00A2\u00E2\u20AC\u00B0\u00CB\u20200.518 km/s\u003C/p\u003E\u003Cp\u003ESidereal rotation period 0.42 d (10 h)^4^7\u003C/p\u003E\u003Cp\u003EAlbedo 0.32 \u00C3\u201A\u00C2\u00B1 0.06^6\u003C/p\u003E\u003Cp\u003ETemperature \u00C3\u00A2\u00E2\u20AC\u00B0\u00CB\u202012 K\u003C/p\u003E\u003Cp\u003ESpectral type \u003C/p\u003E\u003Cp\u003E (red) B\u00C3\u00A2\u00CB\u2020\u00E2\u20AC\u2122V=1.24; \u003C/p\u003E\u003Cp\u003E V\u00C3\u00A2\u00CB\u2020\u00E2\u20AC\u2122R=0.78[8]\u003C/p\u003E\u003Cp\u003Eparent magnitude \u003C/p\u003E\u003Cp\u003E 21.1^9\u003C/p\u003E\u003Cp\u003E 20.5 (perihelic)^10\u003C/p\u003E\u003Cp\u003EAbsolute magnitude (H) 1.83 \u00C3\u201A\u00C2\u00B1 0.05^6\u003C/p\u003E\u003Cp\u003EComment below or submit to the poll *that is if I do it right* if you would like to see a celestial body like this added to a future version of KSP!!!!!!!!!!!!!\u003C/p\u003E\u003Cp\u003EI owe all credentials and information to this site. \u003Ca href=\u0022https://en.wikipedia.org/wiki/90377_Sedna\u0022 rel=\u0022external nofollow\u0022\u003Ehttp://en.wikipedia.org/wiki/90377_Sedna\u003C/a\u003E \u0022Pshhhhhhhh so I got the information from Wikipedia so what...\u0022 lol\u003C/p\u003E\n"},{"CreatedByName":"Kerbface","CreatedById":58573,"CreatedDateTime":"2013-07-20T08:05:47Z","Content":"\n\u003Cp\u003ESedna is a lot smaller than our moon...\u003C/p\u003E\u003Cp\u003EAnyway, I have suggested before that a planet like Sedna, like with that bizzare orbit, be added to the game, but I think you should know better than to suggest the actual planet itself, this isn\u0027t our Solar system.\u003C/p\u003E\n"},{"CreatedByName":"xxvenumusxx","CreatedById":28982,"CreatedDateTime":"2013-07-20T08:19:10Z","Content":"\n\u003Cp\u003E\u0022Sedna is a lot smaller than our moon...\u0022\u003C/p\u003E\u003Cp\u003EDidn\u0027t I state that. also Duna and Jool are based off of Mars and Jupiter all ideas have to start some were, so its reasonable to say that the first source of ideas should come from our own system. Im not saying \u0022THIS IS THE PLANET I WANT AND THATS FINAL.\u0022 im just making suggestions. and im not very active on the forums as you can see,and I wasn\u0027t to sure if someone had made a suggestion like this or not so I thought I would. (=\u003C/p\u003E\n"},{"CreatedByName":"xxvenumusxx","CreatedById":28982,"CreatedDateTime":"2013-07-20T08:22:05Z","Content":"\n\u003Cp\u003ESorry, I thought I put \u0022Sedna is a lot smaller than our moon...\u0022 somewhere in there but it looks like I forgot that. XD\u003C/p\u003E\n"},{"CreatedByName":"Kerbface","CreatedById":58573,"CreatedDateTime":"2013-07-20T09:19:05Z","Content":"\n\u003Cblockquote data-ipsquote=\u0022\u0022 class=\u0022ipsQuote\u0022 data-ipsquote-username=\u0022xxvenumusxx\u0022 data-cite=\u0022xxvenumusxx\u0022\u003E\u003Cdiv\u003ESorry, I thought I put \u0022Sedna is a lot smaller than our moon...\u0022 somewhere in there but it looks like I forgot that. XD\u003C/div\u003E\u003C/blockquote\u003E\u003Cp\u003EYeah, you said it is slightly smaller than our moon.\u003C/p\u003E\n"},{"CreatedByName":"xxvenumusxx","CreatedById":28982,"CreatedDateTime":"2013-07-20T09:58:26Z","Content":"\n\u003Cp\u003E\u0022it is classified as a Dwarf Planet, slightly smaller then our moon\u0022\u003C/p\u003E\u003Cp\u003EYeah there it is I must be blind or something XD\u003C/p\u003E\n"},{"CreatedByName":"ouion","CreatedById":38531,"CreatedDateTime":"2013-07-20T23:02:46Z","Content":"\n\u003Cp\u003Eit probably take a long time to get to the planet in time and you need to carry alot of fuel.\u003C/p\u003E\n"},{"CreatedByName":"Hofugir","CreatedById":51072,"CreatedDateTime":"2013-07-21T14:55:54Z","Content":"\n\u003Cp\u003EBack when i was working on adding planets of my own, i initally made a pluto/sedna analog 138bm out, took a hell of a time to get there but was fun.\u003C/p\u003E\n"},{"CreatedByName":"Motokid600","CreatedById":66349,"CreatedDateTime":"2013-07-21T16:53:23Z","Content":"\n\u003Cp\u003EId rather see a Saturn, Uranus, Neptune analog added in first, but yea I do agree. Comets too.\u003C/p\u003E\n"},{"CreatedByName":"SunJumper","CreatedById":27062,"CreatedDateTime":"2013-07-21T17:16:26Z","Content":"\n\u003Cp\u003ELanding on a Sedna Analogue would require only a small amount of extra delta-v compared with Eeloo, assuming they are of similar size. It would just take longer. \u003Cspan style=\u0022color:#ffffff;\u0022\u003EI just hope they compensate with lots of easter eggs/cool stuff...\u003C/span\u003E\u003C/p\u003E\n"},{"CreatedByName":"Flixxbeatz","CreatedById":29991,"CreatedDateTime":"2013-07-21T17:35:01Z","Content":"\n\u003Cp\u003ECould be, but its orbit means limited time frame and missions that you have only one chance \u003Cem\u003Eper save\u003C/em\u003E and it will depend how close it is to its Periapsis once you\u0027ve started a new save. In short, you will only have \u003Cstrong\u003Ea single window for an encounter per game*\u003C/strong\u003E. \u003C/p\u003E\u003Cp\u003EYou don\u0027t want to waste that by just sending a simple unmanned probe/lander assembly, right? So you then start building your massive interplanetary ship for this one-off encounter. But if you miscalculated and saw that the body was still a couple of thousand years away, are you willing to timewarp (given that it would still take a couple of hours at maximum warp**) until a transfer window arrives?\u003C/p\u003E\u003Cp\u003EIf you don\u0027t care about not launching a space vehicle or a new mission for a few in-game millenia, METs of your active missions getting stamped with T\u002B9999 (even your \u0022Sedna\u0022 ship will get it if it\u0027s already built) and leaving a kerbal inside a ship in orbit for \u003Cem\u003Emore than a thousand years\u003C/em\u003E*** (TL;DR: \u003Cem\u003Ethrowing your space program out of whack\u003C/em\u003E) then that would be fine for you to warp-it-up.\u003C/p\u003E\u003Cp\u003E\u003Cspan style=\u0022font-size:8px;\u0022\u003E*unless the warpmatics option is used.\u003C/span\u003E\u003C/p\u003E\u003Cp\u003E\u003Cspan style=\u0022font-size:8px;\u0022\u003E**current (0.20) timewarp scaling.\u003C/span\u003E\u003C/p\u003E\u003Cp\u003E\u003Cspan style=\u0022font-size:8px;\u0022\u003E***assuming that life support isn\u0027t implemented yet in-game, and the kerbals still rely on \u0022photosynthesis\u0022 by the time a planetoid with \u0022that\u0022 orbit gets introduced.\u003C/span\u003E\u003C/p\u003E\n\u003Cspan class=\u0022ipsType_reset ipsType_medium ipsType_light\u0022 data-excludequote=\u0022\u0022\u003E\n\u003Cstrong\u003EEdited \u003Ctime datetime=\u00222013-07-21T17:37:12Z\u0022 title=\u002207/21/2013 05:37  PM\u0022 data-short=\u002210 yr\u0022\u003EJuly 21, 2013\u003C/time\u003E by Flixxbeatz\u003C/strong\u003E\n\u003C/span\u003E\n"},{"CreatedByName":"Kerbface","CreatedById":58573,"CreatedDateTime":"2013-07-22T00:25:27Z","Content":"\n\u003Cp\u003EI don\u0027t think it would be necessary to have it really as stretched as Sedna\u0027s orbit. But something with a similarly shaped one, just a lot smaller, could be interesting. A person would still have to wait, say, 100 years for the next orbit to come around.\u003C/p\u003E\n"},{"CreatedByName":"magnemoe","CreatedById":57801,"CreatedDateTime":"2013-07-22T04:00:29Z","Content":"\n\u003Cblockquote data-ipsquote=\u0022\u0022 class=\u0022ipsQuote\u0022 data-ipsquote-username=\u0022ouion\u0022 data-cite=\u0022ouion\u0022\u003E\u003Cdiv\u003Eit probably take a long time to get to the planet in time and you need to carry alot of fuel.\u003C/div\u003E\u003C/blockquote\u003E\u003Cp\u003ENot much more than Eeloo, however it takes an long time getting where.\u003C/p\u003E\n"},{"CreatedByName":"SunJumper","CreatedById":27062,"CreatedDateTime":"2013-07-22T08:47:05Z","Content":"\n\u003Cblockquote data-ipsquote=\u0022\u0022 class=\u0022ipsQuote\u0022 data-ipsquote-username=\u0022Flixxbeatz\u0022 data-cite=\u0022Flixxbeatz\u0022\u003E\u003Cdiv\u003ECould be, but its orbit means limited time frame and missions that you have only one chance \u003Cem\u003Eper save\u003C/em\u003E and it will depend how close it is to its Periapsis once you\u0027ve started a new save. In short, you will only have \u003Cstrong\u003Ea single window for an encounter per game*\u003C/strong\u003E. \u003Cp\u003EYou don\u0027t want to waste that by just sending a simple unmanned probe/lander assembly, right? So you then start building your massive interplanetary ship for this one-off encounter. But if you miscalculated and saw that the body was still a couple of thousand years away, are you willing to timewarp (given that it would still take a couple of hours at maximum warp**) until a transfer window arrives?\u003C/p\u003E\u003Cp\u003EIf you don\u0027t care about not launching a space vehicle or a new mission for a few in-game millenia, METs of your active missions getting stamped with T\u002B9999 (even your \u0022Sedna\u0022 ship will get it if it\u0027s already built) and leaving a kerbal inside a ship in orbit for \u003Cem\u003Emore than a thousand years\u003C/em\u003E*** (TL;DR: \u003Cem\u003Ethrowing your space program out of whack\u003C/em\u003E) then that would be fine for you to warp-it-up.\u003C/p\u003E\u003Cp\u003E\u003Cspan style=\u0022font-size:8px;\u0022\u003E*unless the warpmatics option is used.\u003C/span\u003E\u003C/p\u003E\u003Cp\u003E\u003Cspan style=\u0022font-size:8px;\u0022\u003E**current (0.20) timewarp scaling.\u003C/span\u003E\u003C/p\u003E\u003Cp\u003E\u003Cspan style=\u0022font-size:8px;\u0022\u003E***assuming that life support isn\u0027t implemented yet in-game, and the kerbals still rely on \u0022photosynthesis\u0022 by the time a planetoid with \u0022that\u0022 orbit gets introduced.\u003C/span\u003E\u003C/p\u003E\u003C/div\u003E\u003C/blockquote\u003E\u003Cp\u003EFor a body that far out, the synodic period would actually be very close to Kerbin\u0027s year. The long part would be the actual transfer, not waiting for a window. Assuming you don\u0027t mind going for it at apoapsis.\u003C/p\u003E\n"},{"CreatedByName":"Boex","CreatedById":19600,"CreatedDateTime":"2013-07-22T08:50:54Z","Content":"\n\u003Cp\u003ENot with only x100 000 timewarp...But if they figure out how to fix the inaccuracies and floating point numbers and add further time acceleration, then I\u0027d love to see something like this in the game.\u003C/p\u003E\n"},{"CreatedByName":"Joshington","CreatedById":73509,"CreatedDateTime":"2013-07-24T04:56:26Z","Content":"\n\u003Cp\u003EIt would probably have to be a very interesting planet for anyone to bother visiting it, besides for bragging rights of course. Maybe a very large underground cave system.\u003C/p\u003E\n"}]}